OBJECT_NAME,OBJECT_ID,EPOCH,MEAN_MOTION,ECCENTRICITY,INCLINATION,RA_OF_ASC_NODE,ARG_OF_PERICENTER,MEAN_ANOMALY,EPHEMERIS_TYPE,CLASSIFICATION_TYPE,NORAD_CAT_ID,ELEMENT_SET_NO,REV_AT_EPOCH,BSTAR,MEAN_MOTION_DOT,MEAN_MOTION_DDOT
HAWK-6B,2023-011A,2026-06-18T11:52:14.155392,15.22943672,.0002127,40.4999,344.4459,9.1621,350.9226,0,U,55324,999,18804,.17085E-3,.3902E-4,0
HAWK-6C,2023-011C,2026-06-18T11:51:17.099424,15.22939741,.0003058,40.4990,341.2884,358.2260,1.8538,0,U,55326,999,18805,.1549E-3,.3518E-4,0
HAWK-6A,2023-011D,2026-06-18T11:51:21.668256,15.22941648,.0002735,40.4998,342.9122,354.1285,5.9492,0,U,55327,999,18805,.16991E-3,.3879E-4,0
HAWK-7A,2023-054P,2026-06-18T16:23:06.816192,15.27373287,.0004217,97.2696,56.9818,53.9708,306.1922,0,U,56191,999,17725,.16697E-3,.4403E-4,0
HAWK-7B,2023-054R,2026-06-18T16:22:59.740032,15.27371629,.0003656,97.2721,55.2462,66.2532,293.9090,0,U,56193,999,17725,.17293E-3,.4563E-4,0
HAWK-7C,2023-054Y,2026-06-18T16:22:50.005344,15.27372883,.0003588,97.2699,56.0144,57.5778,302.5808,0,U,56200,999,17725,.16774E-3,.4424E-4,0
